[{"OBJECT_NAME":"STARLINK-2558","OBJECT_ID":"2021-036G","EPOCH":"2026-03-09T05:46:50.420640","MEAN_MOTION":15.30182377,"ECCENTRICITY":0.00011617,"INCLINATION":53.1601,"RA_OF_ASC_NODE":77.4576,"ARG_OF_PERICENTER":117.5485,"MEAN_ANOMALY":242.5634,"EPHEMERIS_TYPE":0,"CLASSIFICATION_TYPE":"U","NORAD_CAT_ID":48282,"ELEMENT_SET_NO":999,"REV_AT_EPOCH":26834,"BSTAR":-4.0136683e-5,"MEAN_MOTION_DOT":-1.547e-5,"MEAN_MOTION_DDOT":0},{"OBJECT_NAME":"ICEYE-X31","OBJECT_ID":"2023-174AJ","EPOCH":"2026-03-09T23:06:20.433600","MEAN_MOTION":15.30950809,"ECCENTRICITY":0.00015021,"INCLINATION":97.3851,"RA_OF_ASC_NODE":144.9524,"ARG_OF_PERICENTER":332.6589,"MEAN_ANOMALY":27.4572,"EPHEMERIS_TYPE":0,"CLASSIFICATION_TYPE":"U","NORAD_CAT_ID":58288,"ELEMENT_SET_NO":999,"REV_AT_EPOCH":12955,"BSTAR":0.00066288467,"MEAN_MOTION_DOT":0.00019777,"MEAN_MOTION_DDOT":0}]
